YAOGAN-36 04C           
1 54750U 22171E   26068.78871400  .00016196  00000+0  54592-3 0  9991
2 54750  34.9797  96.6578 0006685 275.3761  84.6192 15.29852307180246
STARLINK-32276          
1 60944U 24155W   26068.46501656 -.00000623  00000+0 -89223-5 0  9996
2 60944  53.1601 130.9073 0001264  79.1509 280.9634 15.30180708 86355
